Day,Airport_id,Date,Wind speed,Temperature,Visibility,Time,Wind direction,Dew point,Pressure,Wind gust
14th,ADT/KADH,2024-03-11 08:55:00,12kt,21°C,10 SM,07:55 UTC,160°,18°C,29.68 inHg,18kt
14th,ADT/KADH,2024-03-11 08:55:00,10kt,20°C,10 SM,07:15 UTC,160°,18°C,29.68 inHg,17kt
14th,ADT/KADH,2024-03-11 08:55:00,14kt,20°C,10 SM,05:55 UTC,160°,17°C,29.68 inHg,19kt
14th,ADT/KADH,2024-03-11 08:55:00,14kt,21°C,10 SM,05:15 UTC,160°,17°C,29.69 inHg,20kt
14th,ADT/KADH,2024-03-11 08:55:00,14kt,21°C,10 SM,04:55 UTC,160°,17°C,29.68 inHg,22kt
14th,ADT/KADH,2024-03-11 08:55:00,12kt,21°C,10 SM,04:15 UTC,160°,17°C,29.7 inHg,18kt
14th,ADT/KADH,2024-03-11 08:55:00,12kt,21°C,10 SM,03:55 UTC,160°,17°C,29.69 inHg,20kt
14th,ADT/KADH,2024-03-11 08:55:00,14kt,21°C,10 SM,03:15 UTC,160°,17°C,29.69 inHg,21kt
14th,ADT/KADH,2024-03-11 08:55:00,13kt,21°C,10 SM,02:55 UTC,160°,17°C,29.68 inHg,22kt
14th,ADT/KADH,2024-03-11 08:55:00,14kt,22°C,10 SM,02:15 UTC,160°,17°C,29.68 inHg,22kt
14th,ADT/KADH,2024-03-11 08:55:00,11kt,22°C,10 SM,01:55 UTC,150°,16°C,29.68 inHg,20kt
14th,ADT/KADH,2024-03-11 08:55:00,13kt,22°C,10 SM,01:15 UTC,160°,16°C,29.67 inHg,19kt
14th,ADT/KADH,2024-03-11 08:55:00,14kt,23°C,10 SM,00:55 UTC,160°,16°C,29.66 inHg,21kt
14th,ADT/KADH,2024-03-11 08:55:00,16kt,25°C,10 SM,00:15 UTC,150°,16°C,29.65 inHg,25kt
13th,ADT/KADH,2024-03-11 08:55:00,14kt,25°C,10 SM,23:55 UTC,160°,16°C,29.65 inHg,26kt
13th,ADT/KADH,2024-03-11 08:55:00,11kt,25°C,10 SM,23:15 UTC,160°,17°C,29.64 inHg,17kt
13th,ADT/KADH,2024-03-11 08:55:00,17kt,27°C,10 SM,22:35 UTC,170°,16°C,29.63 inHg,25kt
13th,ADT/KADH,2024-03-11 08:55:00,13kt,27°C,10 SM,22:15 UTC,180°,16°C,29.64 inHg,22kt
13th,ADT/KADH,2024-03-11 08:55:00,12kt,27°C,10 SM,21:35 UTC,160°,16°C,29.65 inHg,23kt
13th,ADT/KADH,2024-03-11 08:55:00,13kt,28°C,10 SM,21:15 UTC,180°,16°C,29.66 inHg,23kt
13th,ADT/KADH,2024-03-11 08:55:00,14kt,27°C,10 SM,20:55 UTC,170°,16°C,29.66 inHg,23kt
13th,ADT/KADH,2024-03-11 08:55:00,15kt,27°C,10 SM,20:15 UTC,150°,17°C,29.67 inHg,21kt
13th,ADT/KADH,2024-03-11 08:55:00,11kt,26°C,10 SM,19:35 UTC,170°,16°C,29.69 inHg,21kt
13th,ADT/KADH,2024-03-11 08:55:00,16kt,26°C,10 SM,19:15 UTC,160°,16°C,29.7 inHg,21kt
13th,ADT/KADH,2024-03-11 08:55:00,12kt,25°C,10 SM,18:55 UTC,180°,16°C,29.71 inHg,20kt
13th,ADT/KADH,2024-03-11 08:55:00,12kt,24°C,10 SM,18:15 UTC,170°,17°C,29.73 inHg,25kt
13th,ADT/KADH,2024-03-11 08:55:00,16kt,24°C,10 SM,17:35 UTC,150°,17°C,29.75 inHg,20kt
13th,ADT/KADH,2024-03-11 08:55:00,13kt,24°C,10 SM,17:15 UTC,160°,16°C,29.76 inHg,24kt
13th,ADT/KADH,2024-03-11 08:55:00,11kt,23°C,10 SM,16:55 UTC,170°,16°C,29.77 inHg,18kt
13th,ADT/KADH,2024-03-11 08:55:00,14kt,22°C,10 SM,16:15 UTC,160°,16°C,29.78 inHg,
13th,ADT/KADH,2024-03-11 08:55:00,10kt,21°C,10 SM,15:55 UTC,180°,16°C,29.78 inHg,15kt
13th,ADT/KADH,2024-03-11 08:55:00,11kt,19°C,10 SM,15:15 UTC,160°,16°C,29.77 inHg,16kt
13th,ADT/KADH,2024-03-11 08:55:00,10kt,19°C,10 SM,14:55 UTC,170°,16°C,29.77 inHg,
13th,ADT/KADH,2024-03-11 08:55:00,12kt,18°C,10 SM,14:15 UTC,160°,16°C,29.76 inHg,
13th,ADT/KADH,2024-03-11 08:55:00,10kt,17°C,10 SM,13:55 UTC,160°,16°C,29.76 inHg,14kt
13th,ADT/KADH,2024-03-11 08:55:00,9kt,17°C,10 SM,13:15 UTC,170°,16°C,29.77 inHg,
13th,ADT/KADH,2024-03-11 08:55:00,8kt,16°C,10 SM,12:55 UTC,170°,15°C,29.77 inHg,15kt
13th,ADT/KADH,2024-03-11 08:55:00,8kt,16°C,10 SM,12:15 UTC,170°,15°C,29.77 inHg,
13th,ADT/KADH,2024-03-11 08:55:00,7kt,16°C,10 SM,11:55 UTC,170°,15°C,29.77 inHg,
13th,ADT/KADH,2024-03-11 08:55:00,8kt,16°C,10 SM,11:15 UTC,160°,15°C,29.76 inHg,
13th,ADT/KADH,2024-03-11 08:55:00,7kt,15°C,10 SM,10:55 UTC,160°,15°C,29.76 inHg,
13th,ADT/KADH,2024-03-11 08:55:00,8kt,16°C,10 SM,10:15 UTC,150°,15°C,29.75 inHg,
13th,ADT/KADH,2024-03-11 08:55:00,7kt,16°C,10 SM,09:55 UTC,160°,15°C,29.75 inHg,
13th,ADT/KADH,2024-03-11 08:55:00,5kt,15°C,10 SM,09:15 UTC,170°,14°C,29.76 inHg,
13th,ADT/KADH,2024-03-11 08:55:00,6kt,16°C,10 SM,08:55 UTC,160°,14°C,29.76 inHg,
13th,ADT/KADH,2024-03-11 08:55:00,6kt,16°C,10 SM,08:15 UTC,170°,14°C,29.77 inHg,
13th,ADT/KADH,2024-03-11 08:55:00,7kt,16°C,10 SM,07:35 UTC,160°,14°C,29.78 inHg,
13th,ADT/KADH,2024-03-11 08:55:00,8kt,16°C,10 SM,07:15 UTC,160°,14°C,29.79 inHg,
13th,ADT/KADH,2024-03-11 08:55:00,7kt,16°C,10 SM,06:55 UTC,160°,14°C,29.79 inHg,
13th,ADT/KADH,2024-03-11 08:55:00,7kt,16°C,10 SM,06:15 UTC,170°,14°C,29.8 inHg,
13th,ADT/KADH,2024-03-11 08:55:00,7kt,17°C,10 SM,05:55 UTC,170°,14°C,29.8 inHg,
13th,ADT/KADH,2024-03-11 08:55:00,7kt,17°C,10 SM,05:15 UTC,160°,14°C,29.82 inHg,
13th,ADT/KADH,2024-03-11 08:55:00,7kt,17°C,10 SM,04:55 UTC,160°,14°C,29.82 inHg,
13th,ADT/KADH,2024-03-11 08:55:00,8kt,17°C,10 SM,04:15 UTC,160°,14°C,29.82 inHg,
13th,ADT/KADH,2024-03-11 08:55:00,9kt,18°C,10 SM,03:55 UTC,160°,14°C,29.83 inHg,
13th,ADT/KADH,2024-03-11 08:55:00,8kt,18°C,10 SM,03:15 UTC,160°,14°C,29.83 inHg,
13th,ADT/KADH,2024-03-11 08:55:00,9kt,18°C,10 SM,02:55 UTC,160°,14°C,29.83 inHg,
13th,ADT/KADH,2024-03-11 08:55:00,10kt,19°C,10 SM,02:15 UTC,160°,14°C,29.83 inHg,
13th,ADT/KADH,2024-03-11 08:55:00,11kt,19°C,10 SM,01:55 UTC,160°,14°C,29.82 inHg,15kt
13th,ADT/KADH,2024-03-11 08:55:00,11kt,20°C,10 SM,01:15 UTC,160°,14°C,29.81 inHg,
13th,ADT/KADH,2024-03-11 08:55:00,10kt,20°C,10 SM,00:55 UTC,160°,14°C,29.81 inHg,17kt
13th,ADT/KADH,2024-03-11 08:55:00,12kt,21°C,10 SM,00:15 UTC,160°,14°C,29.8 inHg,
12th,ADT/KADH,2024-03-11 08:55:00,11kt,22°C,10 SM,23:55 UTC,180°,14°C,29.8 inHg,16kt
12th,ADT/KADH,2024-03-11 08:55:00,13kt,23°C,10 SM,23:15 UTC,170°,14°C,29.79 inHg,19kt
12th,ADT/KADH,2024-03-11 08:55:00,13kt,24°C,10 SM,22:55 UTC,180°,14°C,29.79 inHg,19kt
12th,ADT/KADH,2024-03-11 08:55:00,12kt,24°C,10 SM,22:15 UTC,170°,14°C,29.79 inHg,19kt
12th,ADT/KADH,2024-03-11 08:55:00,12kt,25°C,10 SM,21:55 UTC,190°,14°C,29.8 inHg,20kt
12th,ADT/KADH,2024-03-11 08:55:00,13kt,25°C,10 SM,21:15 UTC,200°,14°C,29.81 inHg,21kt
12th,ADT/KADH,2024-03-11 08:55:00,15kt,24°C,10 SM,20:55 UTC,200°,14°C,29.81 inHg,24kt
12th,ADT/KADH,2024-03-11 08:55:00,12kt,24°C,10 SM,20:15 UTC,180°,14°C,29.83 inHg,22kt
12th,ADT/KADH,2024-03-11 08:55:00,16kt,23°C,10 SM,19:55 UTC,200°,13°C,29.84 inHg,24kt
12th,ADT/KADH,2024-03-11 08:55:00,16kt,23°C,10 SM,19:15 UTC,210°,14°C,29.86 inHg,27kt
12th,ADT/KADH,2024-03-11 08:55:00,11kt,24°C,10 SM,18:55 UTC,190°,14°C,29.87 inHg,21kt
12th,ADT/KADH,2024-03-11 08:55:00,13kt,22°C,10 SM,18:15 UTC,190°,13°C,29.89 inHg,24kt
12th,ADT/KADH,2024-03-11 08:55:00,14kt,19°C,10 SM,16:55 UTC,200°,13°C,29.96 inHg,25kt
12th,ADT/KADH,2024-03-11 08:55:00,15kt,19°C,10 SM,16:35 UTC,210°,13°C,29.97 inHg,26kt
12th,ADT/KADH,2024-03-11 08:55:00,14kt,18°C,10 SM,16:15 UTC,200°,13°C,29.96 inHg,24kt
12th,ADT/KADH,2024-03-11 08:55:00,16kt,19°C,10 SM,15:55 UTC,200°,12°C,29.97 inHg,23kt
12th,ADT/KADH,2024-03-11 08:55:00,15kt,17°C,10 SM,15:15 UTC,200°,12°C,29.98 inHg,19kt
12th,ADT/KADH,2024-03-11 08:55:00,9kt,16°C,10 SM,14:55 UTC,180°,11°C,29.99 inHg,17kt
12th,ADT/KADH,2024-03-11 08:55:00,6kt,12°C,10 SM,14:15 UTC,170°,9°C,29.99 inHg,
12th,ADT/KADH,2024-03-11 08:55:00,7kt,12°C,10 SM,13:55 UTC,170°,8°C,29.99 inHg,
12th,ADT/KADH,2024-03-11 08:55:00,7kt,11°C,10 SM,13:15 UTC,180°,8°C,29.98 inHg,
12th,ADT/KADH,2024-03-11 08:55:00,6kt,10°C,10 SM,12:55 UTC,180°,7°C,29.98 inHg,
12th,ADT/KADH,2024-03-11 08:55:00,6kt,9°C,10 SM,12:15 UTC,160°,6°C,29.99 inHg,
12th,ADT/KADH,2024-03-11 08:55:00,5kt,9°C,10 SM,11:55 UTC,150°,6°C,29.99 inHg,
12th,ADT/KADH,2024-03-11 08:55:00,5kt,9°C,10 SM,11:15 UTC,140°,5°C,29.99 inHg,
12th,ADT/KADH,2024-03-11 08:55:00,8kt,11°C,10 SM,10:55 UTC,160°,6°C,29.99 inHg,
12th,ADT/KADH,2024-03-11 08:55:00,7kt,11°C,10 SM,10:15 UTC,160°,6°C,29.99 inHg,
12th,ADT/KADH,2024-03-11 08:55:00,8kt,12°C,10 SM,09:55 UTC,170°,6°C,30 inHg,
12th,ADT/KADH,2024-03-11 08:55:00,8kt,12°C,10 SM,09:15 UTC,160°,5°C,30.01 inHg,
12th,ADT/KADH,2024-03-11 08:55:00,9kt,12°C,10 SM,08:55 UTC,160°,5°C,30.01 inHg,
12th,ADT/KADH,2024-03-11 08:55:00,11kt,12°C,10 SM,08:15 UTC,160°,5°C,30.02 inHg,
12th,ADT/KADH,2024-03-11 08:55:00,10kt,12°C,10 SM,07:55 UTC,160°,5°C,30.03 inHg,
12th,ADT/KADH,2024-03-11 08:55:00,9kt,12°C,10 SM,07:15 UTC,160°,5°C,30.04 inHg,
12th,ADT/KADH,2024-03-11 08:55:00,9kt,12°C,10 SM,06:55 UTC,160°,5°C,30.05 inHg,
12th,ADT/KADH,2024-03-11 08:55:00,9kt,13°C,10 SM,06:15 UTC,160°,4°C,30.05 inHg,
12th,ADT/KADH,2024-03-11 08:55:00,9kt,13°C,10 SM,05:55 UTC,160°,4°C,30.05 inHg,
12th,ADT/KADH,2024-03-11 08:55:00,10kt,13°C,10 SM,05:15 UTC,160°,4°C,30.07 inHg,
12th,ADT/KADH,2024-03-11 08:55:00,9kt,13°C,10 SM,04:55 UTC,160°,4°C,30.08 inHg,
12th,ADT/KADH,2024-03-11 08:55:00,7kt,11°C,10 SM,04:15 UTC,160°,4°C,30.09 inHg,
12th,ADT/KADH,2024-03-11 08:55:00,4kt,12°C,10 SM,03:55 UTC,170°,4°C,30.09 inHg,
12th,ADT/KADH,2024-03-11 08:55:00,8kt,13°C,10 SM,03:15 UTC,150°,4°C,30.09 inHg,
12th,ADT/KADH,2024-03-11 08:55:00,8kt,13°C,10 SM,02:55 UTC,160°,5°C,30.09 inHg,
12th,ADT/KADH,2024-03-11 08:55:00,5kt,14°C,10 SM,02:15 UTC,170°,5°C,30.09 inHg,
12th,ADT/KADH,2024-03-11 08:55:00,6kt,15°C,10 SM,01:55 UTC,170°,5°C,30.08 inHg,
12th,ADT/KADH,2024-03-11 08:55:00,8kt,16°C,10 SM,01:15 UTC,160°,6°C,30.07 inHg,
12th,ADT/KADH,2024-03-11 08:55:00,8kt,17°C,10 SM,00:55 UTC,160°,6°C,30.06 inHg,
12th,ADT/KADH,2024-03-11 08:55:00,10kt,18°C,10 SM,00:15 UTC,170°,6°C,30.06 inHg,
11th,ADT/KADH,2024-03-11 08:55:00,11kt,19°C,10 SM,23:55 UTC,160°,6°C,30.07 inHg,17kt
11th,ADT/KADH,2024-03-11 08:55:00,11kt,21°C,10 SM,23:15 UTC,160°,6°C,30.07 inHg,
11th,ADT/KADH,2024-03-11 08:55:00,8kt,21°C,10 SM,22:35 UTC,170°,6°C,30.08 inHg,
11th,ADT/KADH,2024-03-11 08:55:00,10kt,22°C,10 SM,22:15 UTC,190°,6°C,30.08 inHg,14kt
11th,ADT/KADH,2024-03-11 08:55:00,11kt,,,21:55 UTC,190°,,30.08 inHg,
11th,ADT/KADH,2024-03-11 08:55:00,10kt,22°C,10 SM,21:15 UTC,160°,6°C,30.09 inHg,16kt
11th,ADT/KADH,2024-03-11 08:55:00,13kt,21°C,10 SM,20:35 UTC,160°,6°C,30.11 inHg,
11th,ADT/KADH,2024-03-11 08:55:00,11kt,21°C,10 SM,20:15 UTC,190°,6°C,30.12 inHg,19kt
11th,ADT/KADH,2024-03-11 08:55:00,10kt,21°C,10 SM,19:35 UTC,190°,6°C,30.14 inHg,19kt
11th,ADT/KADH,2024-03-11 08:55:00,12kt,20°C,10 SM,19:15 UTC,180°,6°C,30.15 inHg,20kt
11th,ADT/KADH,2024-03-11 08:55:00,12kt,19°C,10 SM,18:35 UTC,180°,6°C,30.18 inHg,18kt
11th,ADT/KADH,2024-03-11 08:55:00,10kt,19°C,10 SM,18:15 UTC,180°,6°C,30.19 inHg,17kt
11th,ADT/KADH,2024-03-11 08:55:00,12kt,18°C,10 SM,17:55 UTC,200°,6°C,30.2 inHg,16kt
11th,ADT/KADH,2024-03-11 08:55:00,13kt,16°C,10 SM,17:15 UTC,150°,4°C,30.21 inHg,17kt
11th,ADT/KADH,2024-03-11 08:55:00,11kt,15°C,10 SM,16:55 UTC,150°,4°C,30.22 inHg,
11th,ADT/KADH,2024-03-11 08:55:00,10kt,13°C,10 SM,16:15 UTC,160°,3°C,30.23 inHg,15kt
11th,ADT/KADH,2024-03-11 08:55:00,8kt,11°C,10 SM,15:35 UTC,150°,2°C,30.22 inHg,
11th,ADT/KADH,2024-03-11 08:55:00,10kt,11°C,10 SM,15:15 UTC,140°,2°C,30.22 inHg,
11th,ADT/KADH,2024-03-11 08:55:00,10kt,11°C,10 SM,14:55 UTC,150°,2°C,30.22 inHg,
11th,ADT/KADH,2024-03-11 08:55:00,8kt,9°C,10 SM,14:15 UTC,150°,2°C,30.22 inHg,
11th,ADT/KADH,2024-03-11 08:55:00,7kt,10°C,10 SM,13:55 UTC,150°,3°C,30.22 inHg,
11th,ADT/KADH,2024-03-11 08:55:00,5kt,8°C,10 SM,13:15 UTC,150°,3°C,30.21 inHg,
11th,ADT/KADH,2024-03-11 08:55:00,5kt,8°C,10 SM,12:35 UTC,170°,2°C,30.2 inHg,
11th,ADT/KADH,2024-03-11 08:55:00,5kt,8°C,10 SM,12:15 UTC,170°,2°C,30.19 inHg,
11th,ADT/KADH,2024-03-11 08:55:00,5kt,7°C,10 SM,11:55 UTC,160°,2°C,30.18 inHg,
11th,ADT/KADH,2024-03-11 08:55:00,4kt,7°C,10 SM,11:15 UTC,160°,1°C,30.17 inHg,
11th,ADT/KADH,2024-03-11 08:55:00,0kt,7°C,10 SM,10:55 UTC,0°,1°C,30.17 inHg,
11th,ADT/KADH,2024-03-11 08:55:00,5kt,7°C,10 SM,10:15 UTC,180°,1°C,30.16 inHg,
11th,ADT/KADH,2024-03-11 08:55:00,5kt,7°C,10 SM,09:55 UTC,180°,1°C,30.16 inHg,
11th,ADT/KADH,2024-03-11 08:55:00,4kt,6°C,10 SM,09:15 UTC,180°,1°C,30.17 inHg,
11th,ADT/KADH,2024-03-11 08:55:00,3kt,7°C,10 SM,08:55 UTC,170°,1°C,30.17 inHg,
